[{"OBJECT_NAME":"RESURS-P 5","OBJECT_ID":"2024-250A","EPOCH":"2026-03-09T23:31:56.908992","MEAN_MOTION":15.32839945,"ECCENTRICITY":0.00026027,"INCLINATION":97.276,"RA_OF_ASC_NODE":355.9792,"ARG_OF_PERICENTER":63.1234,"MEAN_ANOMALY":297.0274,"EPHEMERIS_TYPE":0,"CLASSIFICATION_TYPE":"U","NORAD_CAT_ID":62430,"ELEMENT_SET_NO":999,"REV_AT_EPOCH":6735,"BSTAR":0.00015600887,"MEAN_MOTION_DOT":4.871e-5,"MEAN_MOTION_DDOT":0},{"OBJECT_NAME":"STARLINK-35169","OBJECT_ID":"2025-195H","EPOCH":"2026-03-09T21:38:10.149504","MEAN_MOTION":15.30195215,"ECCENTRICITY":0.00011095,"INCLINATION":53.1599,"RA_OF_ASC_NODE":257.3744,"ARG_OF_PERICENTER":89.4678,"MEAN_ANOMALY":270.645,"EPHEMERIS_TYPE":0,"CLASSIFICATION_TYPE":"U","NORAD_CAT_ID":65465,"ELEMENT_SET_NO":999,"REV_AT_EPOCH":3002,"BSTAR":0.0011498812,"MEAN_MOTION_DOT":0.00033847,"MEAN_MOTION_DDOT":0}]
